NORAD_CAT_ID,OBJECT_NAME,OBJECT_TYPE,EPOCH,MEAN_MOTION,ECCENTRICITY,INCLINATION,RA_OF_ASC_NODE,ARG_OF_PERICENTER,MEAN_ANOMALY,BSTAR,MEAN_MOTION_DOT,MEAN_MOTION_DDOT,TLE_LINE0,TLE_LINE1,TLE_LINE2,SEMIMAJOR_AXIS,PERIOD,APOGEE,PERIGEE,DECAYED
52456.0,STARLINK-3896,PAYLOAD,2022-08-05 14:00:01,15.08846943,0.0002421999999999,53.2168,199.38,52.7524,136.4115,-0.0019565999999999,-0.0003129999999999,0.0,0 STARLINK-3896,1 52456U 22049F   22217.58335648 -.00031300  00000-0 -19566-2 0  9993,2 52456  53.2168 199.3800 0002422  52.7524 136.4115 15.08846943  1307,6917.859,95.437,541.4,538.049,0.0
52456.0,STARLINK-3896,PAYLOAD,2022-08-05 22:00:00,15.0880902,0.0002327,53.2171,197.8876,54.5429,146.1514,0.0018135,0.00028668,0.0,0 STARLINK-3896,1 52456U 22049F   22217.91667824  .00028668  00000-0  18135-2 0  9996,2 52456  53.2171 197.8876 0002327  54.5429 146.1514 15.08809020  1301,6917.975,95.44,541.45,538.23,0.0
52456.0,STARLINK-3896,PAYLOAD,2022-08-06 06:00:00,15.08834502,0.0002566999999999,53.217,196.3881,53.9997,158.2843,7.468799999999999e-06,-1.7e-06,0.0,0 STARLINK-3896,1 52456U 22049F   22218.25001157 -.00000170  00000-0  74688-5 0  9992,2 52456  53.2170 196.3881 0002567  53.9997 158.2843 15.08834502 14293,6917.897,95.438,541.538,537.986,0.0
52456.0,STARLINK-3896,PAYLOAD,2022-08-06 14:00:01,15.08858279,0.0002511,53.217,194.891,54.2447,169.6231,-0.0021264,-0.0003398999999999,0.0,0 STARLINK-3896,1 52456U 22049F   22218.58334491 -.00033990  00000-0 -21264-2 0  9994,2 52456  53.2170 194.8910 0002511  54.2447 169.6231 15.08858279  1304,6917.825,95.436,541.427,537.952,0.0
52456.0,STARLINK-3896,PAYLOAD,2022-08-06 22:00:00,15.08841783,0.0002457,53.2173,193.3937,59.1248,176.3442,0.00099227,0.0001554,0.0,0 STARLINK-3896,1 52456U 22049F   22218.91667824  .00015540  00000-0  99227-3 0  9994,2 52456  53.2173 193.3937 0002457  59.1248 176.3442 15.08841783  1303,6917.875,95.437,541.44,538.04,0.0
52456.0,STARLINK-3896,PAYLOAD,2022-08-07 14:00:01,15.08842584,0.000248,53.2172,190.4019,54.5508,204.1036,-0.0022527,-0.00035966,0.0,0 STARLINK-3896,1 52456U 22049F   22219.58334491 -.00035966  00000-0 -22527-2 0  9993,2 52456  53.2172 190.4019 0002480  54.5508 204.1036 15.08842584 14498,6917.871999999999,95.437,541.453,538.0219999999998,0.0
52456.0,STARLINK-3896,PAYLOAD,2022-08-07 22:23:50,15.08831195,0.000249,53.2187,188.8311,58.8591,301.2645,-1.6481e-05,-5.51e-06,0.0,0 STARLINK-3896,1 52456U 22049F   22219.93321951 -.00000551  00000-0 -16481-4 0  9995,2 52456  53.2187 188.8311 0002490  58.8591 301.2645 15.08831195 14389,6917.906999999997,95.438,541.495,538.05,0.0
52456.0,STARLINK-3896,PAYLOAD,2022-08-08 04:45:22,15.08835619,0.0002476,53.2188,187.6418,58.155,301.9683,2.1409e-05,5.2e-07,0.0,0 STARLINK-3896,1 52456U 22049F   22220.19817681  .00000052  00000-0  21409-4 0  9995,2 52456  53.2188 187.6418 0002476  58.1550 301.9683 15.08835619 14583,6917.894,95.438,541.472,538.0459999999998,0.0
52456.0,STARLINK-3896,PAYLOAD,2022-08-08 14:00:01,15.08863967,0.0002483,53.2173,185.9128,56.8491,236.638,-0.0017875999999999,-0.00028645,0.0,0 STARLINK-3896,1 52456U 22049F   22220.58335648 -.00028645  00000-0 -17876-2 0  9997,2 52456  53.2173 185.9128 0002483  56.8491 236.6380 15.08863967  1304,6917.807,95.436,541.39,537.9540000000002,0.0
52456.0,STARLINK-3896,PAYLOAD,2022-08-08 22:00:00,15.08869142,0.0002383,53.2176,184.4158,61.5506,243.4826,-0.0010970999999999,-0.00017721,0.0,0 STARLINK-3896,1 52456U 22049F   22220.91667824 -.00017721  00000-0 -10971-2 0  9990,2 52456  53.2176 184.4158 0002383  61.5506 243.4826 15.08869142 14691,6917.791,95.436,541.305,538.008,0.0
52456.0,STARLINK-3896,PAYLOAD,2022-08-09 14:00:01,15.08856667,0.0002319999999999,53.2173,181.4237,56.9777,271.2656,-0.0043501999999999,-0.00068895,0.0,0 STARLINK-3896,1 52456U 22049F   22221.58334491 -.00068895  00000-0 -43502-2 0  9999,2 52456  53.2173 181.4237 0002320  56.9777 271.2656 15.08856667  1304,6917.829000000002,95.437,541.299,538.09,0.0
52456.0,STARLINK-3896,PAYLOAD,2022-08-09 22:00:00,15.08822636,0.0002233,53.2176,179.92700000000005,61.3049,278.5201,0.00068844,0.0001068,0.0,0 STARLINK-3896,1 52456U 22049F   22221.91667824  .00010680  00000-0  68844-3 0  9999,2 52456  53.2176 179.9270 0002233  61.3049 278.5201 15.08822636  1306,6917.933000000001,95.439,541.3430000000002,538.254,0.0
52456.0,STARLINK-3896,PAYLOAD,2022-08-10 06:00:00,15.08812835,0.0002398,53.2175,178.4324,56.679,294.7289,0.0015895999999999,0.00025083,0.0,0 STARLINK-3896,1 52456U 22049F   22222.25001157  .00025083  00000-0  15896-2 0  9999,2 52456  53.2175 178.4324 0002398  56.6790 294.7289 15.08812835 14895,6917.9630000000025,95.439,541.487,538.169,0.0
52456.0,STARLINK-3896,PAYLOAD,2022-08-10 14:00:01,15.08839948,0.0002299999999999,53.2173,176.9349,59.2151,303.7656,-0.0013203,-0.0002124,0.0,0 STARLINK-3896,1 52456U 22049F   22222.58334491 -.00021240  00000-0 -13203-2 0  9998,2 52456  53.2173 176.9349 0002300  59.2151 303.7656 15.08839948  1301,6917.880999999999,95.438,541.337,538.154,0.0
52456.0,STARLINK-3896,PAYLOAD,2022-08-10 22:00:00,15.08835521,0.0002393,53.2175,175.4447,56.0531,318.5003,0.00019687,2.846e-05,0.0,0 STARLINK-3896,1 52456U 22049F   22222.91667824  .00002846  00000-0  19687-3 0  9996,2 52456  53.2175 175.4447 0002393  56.0531 318.5003 15.08835521  1308,6917.894,95.438,541.415,538.104,0.0
52456.0,STARLINK-3896,PAYLOAD,2022-08-11 06:00:02,15.08825893,0.0002429,53.2175,173.9437,58.7248,327.5045,0.0019691,0.00031178,0.0,0 STARLINK-3896,1 52456U 22049F   22223.25002315  .00031178  00000-0  19691-2 0  9996,2 52456  53.2175 173.9437 0002429  58.7248 327.5045 15.08825893 15047,6917.924,95.438,541.469,538.1080000000002,0.0
52456.0,STARLINK-3896,PAYLOAD,2022-08-11 14:00:01,15.0885166,0.0002327,53.2174,172.446,61.4133,336.3442,-0.00085098,-0.00013811,0.0,0 STARLINK-3896,1 52456U 22049F   22223.58334491 -.00013811  00000-0 -85098-3 0  9996,2 52456  53.2174 172.4460 0002327  61.4133 336.3442 15.08851660  1301,6917.845,95.437,541.32,538.1,0.0
52456.0,STARLINK-3896,PAYLOAD,2022-08-11 22:00:00,15.08872347,0.0002294,53.2176,170.9497,64.0858,345.2719,-0.0031765,-0.00050535,0.0,0 STARLINK-3896,1 52456U 22049F   22223.91667824 -.00050535  00000-0 -31765-2 0  9997,2 52456  53.2176 170.9497 0002294  64.0858 345.2719 15.08872347 15140,6917.781999999997,95.436,541.2330000000002,538.06,0.0
52456.0,STARLINK-3896,PAYLOAD,2022-08-12 14:00:01,15.08845035,0.0002254,53.2178,167.9571,61.5621,11.0023,5.5582e-07,-2.8e-06,0.0,0 STARLINK-3896,1 52456U 22049F   22224.58334491 -.00000280  00000-0  55582-6 0  9990,2 52456  53.2178 167.9571 0002254  61.5621  11.0023 15.08845035 15248,6917.865,95.437,541.289,538.1709999999998,0.0
52456.0,STARLINK-3896,PAYLOAD,2022-08-12 22:00:01,15.08872012,0.0002263,53.218,166.4608,63.4646,20.7531,-0.0036667,-0.00058226,0.0,0 STARLINK-3896,1 52456U 22049F   22224.91668981 -.00058226  00000-0 -36667-2 0  9994,2 52456  53.2180 166.4608 0002263  63.4646  20.7531 15.08872012  1302,6917.783,95.436,541.2130000000002,538.082,0.0
52456.0,STARLINK-3896,PAYLOAD,2022-08-13 14:00:01,15.08809234,0.0002131999999999,53.2183,163.4683,59.9238,47.4198,-0.00028984,-4.894e-05,0.0,0 STARLINK-3896,1 52456U 22049F   22225.58334491 -.00004894  00000-0 -28984-3 0  9990,2 52456  53.2183 163.4683 0002132  59.9238  47.4198 15.08809234  1308,6917.974,95.44,541.314,538.365,0.0
52456.0,STARLINK-3896,PAYLOAD,2022-08-13 22:00:00,15.08826996,0.0002201,53.2185,161.9721,62.1218,56.7726,-0.00077549,-0.00012605,0.0,0 STARLINK-3896,1 52456U 22049F   22225.91667824 -.00012605  00000-0 -77549-3 0  9996,2 52456  53.2185 161.9721 0002201  62.1218  56.7726 15.08826996  1301,6917.92,95.438,541.308,538.263,0.0
52456.0,STARLINK-3896,PAYLOAD,2022-08-14 14:00:01,15.08825464,0.0002190999999999,53.2187,158.9796,61.1962,80.8559,0.00089337,0.00013953,0.0,0 STARLINK-3896,1 52456U 22049F   22226.58334491  .00013953  00000-0  89337-3 0  9994,2 52456  53.2187 158.9796 0002191  61.1962  80.8559 15.08825464  1305,6917.925,95.438,541.306,538.274,0.0
52456.0,STARLINK-3896,PAYLOAD,2022-08-14 22:00:00,15.08855923,0.0002261,53.2189,157.4835,63.1343,90.4984,-0.00083914,-0.00013625,0.0,0 STARLINK-3896,1 52456U 22049F   22226.91667824 -.00013625  00000-0 -83914-3 0  9993,2 52456  53.2189 157.4835 0002261  63.1343  90.4984 15.08855923  1300,6917.831999999999,95.437,541.261,538.133,0.0
52456.0,STARLINK-3896,PAYLOAD,2022-08-15 14:00:01,15.08824304,0.0002126999999999,53.2188,154.4907,61.776,115.0717,0.00078704,0.00012255,0.0,0 STARLINK-3896,1 52456U 22049F   22227.58334491  .00012255  00000-0  78704-3 0  9995,2 52456  53.2188 154.4907 0002127  61.7760 115.0717 15.08824304  1301,6917.928000000001,95.439,541.265,538.322,0.0
52456.0,STARLINK-3896,PAYLOAD,2022-08-15 16:00:00,15.08806882,0.0002129,53.2187,154.1163,63.2179,206.5316,0.0032188,0.00051266,0.0,0 STARLINK-3896,1 52456U 22049F   22227.66667824  .00051266  00000-0  32188-2 0  9993,2 52456  53.2187 154.1163 0002129  63.2179 206.5316 15.08806882 15716,6917.982,95.44,541.319,538.374,0.0
52456.0,STARLINK-3896,PAYLOAD,2022-08-15 22:00:00,15.08851097,0.0002191999999999,53.2189,152.9949,63.3774,125.0466,-0.0010626,-0.00017165,0.0,0 STARLINK-3896,1 52456U 22049F   22227.91667824 -.00017165  00000-0 -10626-2 0  9996,2 52456  53.2189 152.9949 0002192  63.3774 125.0466 15.08851097  1307,6917.846,95.437,541.2280000000002,538.195,0.0
52456.0,STARLINK-3896,PAYLOAD,2022-08-16 06:00:02,15.08821284,0.0002278999999999,53.2185,151.4997,58.3125,141.7801,0.0033639,0.00053629,0.0,0 STARLINK-3896,1 52456U 22049F   22228.25002315  .00053629  00000-0  33639-2 0  9994,2 52456  53.2185 151.4997 0002279  58.3125 141.7801 15.08821284 15803,6917.938,95.439,541.379,538.226,0.0
52456.0,STARLINK-3896,PAYLOAD,2022-08-16 14:00:01,15.08844117,0.0002105,53.2185,150.0017,63.8546,147.7749,0.00058554,9.044e-05,0.0,0 STARLINK-3896,1 52456U 22049F   22228.58334491  .00009044  00000-0  58554-3 0  9999,2 52456  53.2185 150.0017 0002105  63.8546 147.7749 15.08844117  1304,6917.868,95.437,541.189,538.2769999999998,0.0
